#dP2024  4  1 12  0  0.00000000      96 __u+U IGS20 EXT  IAC
## 2308 129600.00000000   900.00000000 60401 0.5000000000000
+  120   C06C07C08C09C10C11C12C13C14C16C19C20C21C22C23C24C25
+        C26C27C28C29C30C32C33C34C35C36C37C38C39C40C41C42C43
+        C44C45C46E02E03E04E05E07E08E09E10E11E12E13E14E15E18
+        E19E21E24E25E26E27E30E31E33E34E36G01G02G03G04G05G06
+        G07G08G09G10G11G12G13G14G15G16G17G18G19G20G21G22G23
+        G24G25G26G27G28G29G30G31G32J02J03J04R01R02R03R04R05
+        R07R08R09R11R12R13R14R15R16R17R18R19R20R21R22R24R25
+        R26  0  0  0  0  0  0  0  0  0  0  0  0  0  0  0  0
++         9  9 10  8  9  7 10  8  8 10  9  8 10  7  9  9  8
++         9  8  8 10  7  8  8  7  9  9  9  9  9 10  9  8  8
++         8 10  8  7  8  8  8  7  7  7  7  8  7  7  7  7  6
++         8  7  8  7  8  8  8  8  7  7  8  7  7  7  7  8  7
++         8  7  9  7 10  8  9  8  8  7  7  8  8  9  7  7  8
++         7  7  7  6  8  7  7  7  8  9 10  0  8  8  8  8  8
++         8  9  8  8  9  7  7  9  9  8  7  9  8  7  8  7  8
++         7  0  0  0  0  0  0  0  0  0  0  0  0  0  0  0  0
%c M  cc GPS ccc cccc cccc cccc cccc ccccc ccccc ccccc ccccc
%c cc cc ccc ccc cccc cccc cccc cccc ccccc ccccc ccccc ccccc
%f  0.0000000  0.000000000  0.00000000000  0.000000000000000
%f  0.0000000  0.000000000  0.00000000000  0.000000000000000
%i    0    0    0    0      0      0      0      0         0
%i    0    0    0    0      0      0      0      0         0
/* IAC                                ULTRA-RAPID PREDICTION
/* S/V CLOCKS ARE ALIGNED TO GNSS TIME                      
/* G:C1WC2W R:C1PC2P E:C1XC5X C:C2IC6I J:C1CC2S             
/* PCV:IGS20_2290 OL/AL:FES2004  NONE     YN ORB:CoN CLK:CoN
*  2024 04 01 13 45  0.00000000
PC06 -17145.701436  35010.714476 -16389.922086    314.330648
PC07  -4304.540134  35717.871666 -21743.705373   -860.941032
PC08  -9265.180004  18653.359272  36639.468087     12.697559
PC09 -13242.846268  33806.699857 -21492.820241   -701.714090
PC10   2922.680038  38535.335446 -15866.302157     20.035542
PC11 -10523.889413 -12671.060945 -22462.976129    489.828704
PC12   3383.676371 -25322.318525 -11188.961519   -224.119651
PC13   -264.309250  21934.386885  36182.438478    428.606719
PC14 -19321.087875 -19386.740357   5631.890019    541.417069
PC16 -21495.898996  34467.838201 -11652.523608   -431.568676
PC19  20849.185285  12109.983006 -13993.792431   -916.177361
PC20  15535.353822  23071.325544   2010.504311   -315.772854
PC21   -256.576036 -21057.110011 -18306.894553   -961.953684
PC22  14488.919703  -6508.825040 -22938.897194    -54.055951
PC23 -25772.495704   8143.904502  -6938.647038   -775.525548
PC24 -10439.830362 -14379.609798  21495.158414    946.778396
PC25 -25796.200548  -3545.058563   9998.360199    363.968009
PC26  10072.844776 -16234.795978  20331.407593   -271.058171
PC27  -9315.397817  26158.723639   2826.910761    292.902948
PC28 -17396.787377  17902.691093 -12475.995470    223.715299
PC29  15958.103587   3022.174820  22683.829838    262.389508
PC30   4605.528234  21459.758039  17237.167202    -48.001702
PC32    278.884879  20984.916510  18402.790198   -593.578534
PC33 -20976.396061 -12054.272268  13938.436509   -965.274593
PC34  -5823.120713 -20322.546963 -18219.387442    402.812996
PC35  16798.986568 -18333.591510  12609.515266    397.362513
PC36  25602.604540   4310.464820 -10226.752717     37.535387
PC37 -10725.170159  15960.295820 -20209.250400   -951.886759
PC38 -17689.377888  18637.851089  33450.503960    146.341298
PC39 -23219.534931  34826.333089  -5955.504734     -7.797881
PC40  -8037.647003  32393.746780 -25605.590526    -63.445994
PC41 -15078.000238   5729.340825  22833.315220   -916.324612
PC42 -14665.488215 -23491.781104  -3542.204875   -444.435953
PC43 -15729.578159  -4094.664309 -22698.384982     66.359104
PC44   8342.281709 -26475.185225  -2701.210309    430.758698
PC45  25798.916743  -8049.843277   6995.171797    -78.346465
PC46  11336.101964  14008.117668 -21325.537129   -136.408000
PE02  21229.263791  18326.649550  -9503.731211    115.941379
PE03  11696.709060  22723.957770 -14917.921208   -104.272748
PE04 -17018.899622  -2317.550110  24121.064752   -363.344228
PE05   -375.578677  29459.548329   2848.063041   4734.508877
PE07  12469.833181 -18683.173200 -19271.410449   -112.147778
PE08  16854.583421   3215.377040 -24111.842995   -248.129195
PE09 -12419.969823  18547.501864  19440.165647   -391.484236
PE10 -26218.245619  12045.124164  -6628.305955   -613.791453
PE11 -23185.014956  18010.983675   3856.235556   3101.171255
PE12 -25124.139051   4813.376243 -14919.819611   -974.567771
PE13  23459.949120 -17742.528219  -3241.938907    -20.803386
PE14 -12870.974904  17251.356280 -15675.281376     82.952612
PE15  24886.414789  -4403.806829  15401.221052    -94.575884
PE18   3841.578627 -30223.676669   4800.966616    501.622610
PE19 -10438.377662 -24290.435504  13326.075685   -323.952465
PE21  -3540.521397 -19117.579852  22311.576307   -586.980346
PE24 -17300.021605   8592.435661 -22443.678304   -683.421334
PE25   3103.966582  19018.254032 -22471.980426      2.822133
PE26   7670.964920 -20474.428026 -19945.805904    413.275230
PE27  16990.693098  -8814.497196  22576.308095   -313.414855
PE30  27261.647643   6769.986363   9340.363192   -154.273755
PE31 -27244.832082  -6550.659048  -9532.222239    -19.718040
PE33 -11210.100454 -11672.560937 -24782.765408      9.823905
PE34  11731.786064  11282.812763  24717.664202   -103.234715
PE36  -8370.234788  20491.864849  19661.572347   -207.327600
PG01   2053.871003 -17267.698457 -20324.206114    177.250542
PG02  11446.377352 -20196.815622 -12165.950470   -460.689243
PG03   -893.458138 -16124.408022 -21259.312944    286.136889
PG04   2070.864056 -25995.965617  -4635.018855    328.685112
PG05 -13803.143333   9425.506686  20488.933212   -167.547033
PG06 -21568.419163   2300.794734 -15340.096354    342.048697
PG07  -8299.631044 -13299.611850  21932.157374    -97.545377
PG08   7018.942625 -21643.609591  13232.086319     94.583419
PG09  -8055.560574 -23995.615749   7877.399918    144.951111
PG10  24416.735529  10813.824181  -1113.893777     -4.411370
PG11 -23659.612225  11248.006105  -4197.880934   -624.066937
PG12  -1610.383025  16135.235242 -21332.959902   -492.596396
PG13 -13127.555848  14233.887582  17872.993705    639.103624
PG14 -22929.106576 -13442.321148   2224.662817    365.358486
PG15  -4346.898279  22547.572748  12680.914966    143.803934
PG16  18600.064240  -3933.550887  18397.271929   -327.342850
PG17 -12498.788085 -14605.288610 -17839.286306    711.331324
PG18   8515.134336  12248.772739  21987.937012   -586.630662
PG19 -14787.350307  -5043.728147 -21707.333369    462.110327
PG20 -22780.826234   3415.754655  13150.215782    381.782672
PG21  15167.804298 -19548.035857  -7679.180252    129.020733
PG22 -23846.999645  -9687.182016  -5470.382685      7.041343
PG23  18680.053195  15919.659391  10418.489909    190.595218
PG24 -11977.658705  20857.794225 -11210.804742   -454.055821
PG25   9809.654396  18052.719198 -17314.084062    492.757008
PG26  25048.382376   2546.355336   8863.246151    172.337186
PG27  13049.277833 -10876.070751  20018.047732    -15.863177
PG28  20389.125590   -277.698464 -17032.106811   -186.348574
PG29   4296.213764  25398.178949   6187.032463   -603.201748
PG30 -17769.267444  -5073.431482  19306.298346   -411.529338
PG31  23945.512726  -8049.399820  -9042.561439   -228.027005
PG32  14416.084618  11220.433882 -19141.989075   -617.378525
PJ02 -25043.251002  16959.661251 -24780.696398     -3.552467
PJ03 -28494.456481  31083.907012   2944.612780     -0.128321
PJ04      0.000000      0.000000      0.000000     50.540674
PR01  12808.014760   1818.931936 -21973.654778     81.277896
PR02   3589.848774 -14582.755291 -20547.936462    -22.667458
PR03  -7679.279596 -23162.145968  -7280.432793     97.434701
PR04 -14132.207258 -18947.978522   9610.264825    230.117599
PR05 -13175.569263  -4552.116064  21375.289476    129.298321
PR07   8103.212150  23320.738863   6559.117932     79.255749
PR08  14331.229135  18748.319096  -9657.326508    -74.934346
PR09 -15086.162055   8772.823382 -18622.578187    178.603902
PR11  18987.491117   8063.654311 -14984.266741     29.346612
PR12  25249.098542   -342.562746   3682.004387     38.485947
PR13  17277.972788  -7490.037714  17189.943856    -45.858188
PR14  -3364.679671 -11191.677886  22683.170691     26.302284
PR15 -20045.854801  -7772.736677  13746.723462     80.863462
PR16 -25299.844958    294.656345  -3376.912552     24.459700
PR17   5016.851872 -19875.563360 -15198.163975     74.151777
PR18  -6769.166502  -8512.413141 -23056.965212    135.002672
PR19 -14884.772109   5116.291636 -20077.220150   -271.509542
PR20 -15964.198550  19780.073648  -2418.477099   -110.646686
PR21  -5157.646085  19750.669350  15280.375564    -89.231452
PR22   7605.519229   8024.147115  23012.373845    115.164697
PR24  14962.016457 -20582.770773   1855.934738    -50.086211
PR25  -5477.153315  19670.294560  15282.418899    -26.376601
PR26  14246.094385  19262.092482  -8695.472558    -27.222984
EOF
